{"type":"Feature","properties":{},"geometry":{"type":"Polygon","coordinates":[[[-180,-90],[180,-90],[180,90],[-180,90],[-180,-90]],[[-159.80051,22.06533],[-159.74877,22.1382],[-159.5962,22.23618],[-159.36569,22.21494],[-159.34512,21.982],[-159.46372,21.88299],[-159.80051,22.06533]],[[-158.29265,21.57912],[-158.0252,21.71696],[-157.94161,21.65272],[-157.65283,21.32217],[-157.70703,21.26442],[-157.7786,21.27729],[-158.12667,21.31244],[-158.2538,21.53919],[-158.29265,21.57912]],[[-157.32521,21.09777],[-157.25027,21.21958],[-156.75824,21.17684],[-156.78933,21.06873],[-157.32521,21.09777]],[[-156.71055,20.92676],[-156.61258,21.01249],[-156.25711,20.91745],[-155.99566,20.76404],[-156.07926,20.64397],[-156.41445,20.57241],[-156.58673,20.783],[-156.70167,20.8643],[-156.71055,20.92676]],[[-156.07347,19.70294],[-156.02368,19.81422],[-155.85008,19.97729],[-155.91907,20.17395],[-155.86108,20.26721],[-155.78505,20.2487],[-155.40214,20.07975],[-155.22452,19.99302],[-155.06226,19.8591],[-154.80741,19.50871],[-154.83147,19.45328],[-155.22217,19.23972],[-155.54211,19.08348],[-155.68817,18.91619],[-155.93665,19.05939],[-155.90806,19.33888],[-156.07347,19.70294]],[[-124.68721,48.184433],[-124.566101,48.379715],[-123.12,48.04],[-122.587138,47.095885],[-122.340021,47.359952],[-122.499831,48.18016],[-122.84,49],[-120.002696,49.000885],[-117.03143,48.999309],[-116.048234,49.000369],[-113.059502,49.001402],[-110.070769,49.003004],[-107.082037,49.00458],[-104.092762,49.00564],[-100.629899,49.003004],[-97.228943,49.000885],[-95.158837,48.999826],[-95.156202,49.384014],[-94.81754,49.389285],[-94.640264,48.840017],[-94.32912,48.670673],[-93.63061,48.609281],[-92.609846,48.450015],[-91.639879,48.13993],[-90.830264,48.270103],[-89.599952,48.010274],[-89.599409,48.010274],[-89.490032,48.013406],[-89.488885,48.015263],[-89.272917,48.019808],[-89.18561,48.047326],[-88.378114,48.302918],[-87.494396,47.961595],[-87.208108,47.848372],[-86.921846,47.735123],[-86.672068,47.636162],[-86.495335,47.566838],[-86.428647,47.539838],[-86.040247,47.380054],[-85.846563,47.300136],[-85.652363,47.220219],[-85.458163,47.13981],[-85.263963,47.059893],[-85.07028,46.980001],[-84.87608,46.900083],[-84.826858,46.766732],[-84.779238,46.637102],[-84.543749,46.538684],[-84.543232,46.538684],[-84.6049,46.4396],[-84.3367,46.40877],[-84.14212,46.512226],[-84.128374,46.483649],[-84.115144,46.370917],[-84.091851,46.275419],[-83.890765,46.116927],[-83.763228,46.108969],[-83.669048,46.122741],[-83.616131,46.116927],[-83.469551,45.994686],[-83.592851,45.816894],[-83.397049,45.729044],[-83.179052,45.632719],[-82.919223,45.51792],[-82.760473,45.44751],[-82.550925,45.347517],[-82.515475,45.204114],[-82.485296,45.083993],[-82.446667,44.915708],[-82.407523,44.743729],[-82.368352,44.572809],[-82.326546,44.391296],[-82.281044,44.192342],[-82.24084,44.015608],[-82.196373,43.822442],[-82.137642,43.571088],[-82.190559,43.474272],[-82.417031,43.017607],[-82.429743,42.980038],[-82.90018,42.430227],[-83.119779,42.079912],[-83.128771,42.068802],[-83.142,41.975681],[-83.121898,41.949739],[-83.02981,41.832796],[-82.866306,41.752878],[-82.690089,41.675105],[-82.439278,41.675105],[-82.213323,41.77882],[-81.974138,41.88889],[-81.76087,41.986791],[-81.507397,42.103735],[-81.277747,42.209026],[-81.027969,42.247137],[-80.682434,42.299511],[-80.520506,42.324394],[-80.516268,42.32491],[-80.247448,42.3662],[-79.77304,42.546122],[-79.773257,42.546894],[-78.939362,42.863611],[-78.919777,42.965207],[-79.01,43.27],[-79.171674,43.466339],[-79.00233,43.527188],[-78.845699,43.583283],[-78.72028,43.625089],[-76.820034,43.628784],[-76.69676,43.784899],[-76.586147,43.924063],[-76.5,44.018459],[-76.375,44.09631],[-75.318265,44.816231],[-74.866898,45.00038],[-73.347662,45.007253],[-71.505087,45.008312],[-71.405093,45.254912],[-71.08482,45.30524],[-70.660023,45.460223],[-70.304954,45.914795],[-70.00014,46.693171],[-69.237086,47.447776],[-68.904781,47.184795],[-68.234305,47.354629],[-67.790353,47.066249],[-67.791412,45.702585],[-67.137344,45.137452],[-66.96466,44.8097],[-68.03252,44.3252],[-69.06,43.98],[-70.11617,43.68405],[-70.645734,43.090083],[-70.815052,42.865187],[-70.825103,42.334961],[-70.494916,41.804735],[-70.080058,41.779879],[-70.184832,42.144999],[-69.884799,41.922764],[-69.965207,41.636994],[-70.639895,41.475066],[-71.120382,41.494651],[-71.853826,41.320036],[-72.295142,41.269755],[-72.876166,41.220559],[-73.647887,40.953239],[-73.648269,40.954623],[-73.71,40.931102],[-72.241166,41.11948],[-71.944828,40.930034],[-73.345001,40.630001],[-73.98212,40.627882],[-73.952325,40.75075],[-74.256754,40.47337],[-73.96244,40.42763],[-74.178438,39.709256],[-74.906042,38.939303],[-74.980663,39.196497],[-75.200262,39.248354],[-75.527813,39.498649],[-75.319867,38.959948],[-75.071835,38.782032],[-75.048385,38.448765],[-75.05673,38.40412],[-75.377538,38.01538],[-75.377541,38.01538],[-75.940035,37.216875],[-76.031063,37.256563],[-75.72205,37.93705],[-76.23287,38.319215],[-76.35,39.15],[-76.542725,38.717615],[-76.32933,38.08326],[-76.989895,38.239733],[-76.301619,37.917948],[-76.258739,36.966402],[-75.9718,36.897261],[-75.868076,36.55118],[-75.868077,36.55118],[-75.72731,35.550518],[-76.36337,34.808625],[-77.397635,34.51201],[-78.05496,33.92547],[-78.554114,33.861422],[-79.06067,33.49395],[-79.20357,33.15839],[-80.301325,32.509355],[-80.865007,32.033161],[-81.33629,31.44049],[-81.490473,30.72983],[-81.31371,30.03552],[-80.979832,29.179899],[-80.535585,28.47213],[-80.53004,28.040072],[-80.056539,26.88],[-80.088015,26.205765],[-80.13156,25.816775],[-80.38103,25.20616],[-80.679799,25.079916],[-81.171913,25.201098],[-81.330121,25.639753],[-81.710072,25.869946],[-82.239781,26.729842],[-82.70515,27.49504],[-82.85526,27.88624],[-82.649885,28.55017],[-82.93,29.1],[-83.70959,29.93656],[-84.099797,30.09005],[-85.10882,29.63615],[-85.28784,29.68612],[-85.7731,30.15261],[-86.40007,30.40016],[-87.530388,30.274199],[-88.417802,30.384812],[-89.18049,30.31598],[-89.593702,30.160043],[-89.413735,29.89419],[-89.43,29.48864],[-89.21767,29.29108],[-89.408387,29.159771],[-89.77928,29.30714],[-90.15463,29.11743],[-90.880225,29.148535],[-91.626785,29.677],[-92.49906,29.5523],[-93.22637,29.78375],[-93.84842,29.71363],[-94.690003,29.479932],[-95.60018,28.738556],[-96.593943,28.307291],[-97.140034,27.829981],[-97.370227,27.38019],[-97.379761,26.690154],[-97.330023,26.210209],[-97.140034,25.869946],[-97.530036,25.839793],[-98.240174,26.059934],[-99.020178,26.370019],[-99.300109,26.839912],[-99.520225,27.539999],[-100.110266,28.109912],[-100.455801,28.696233],[-100.95745,29.380972],[-101.66229,29.779423],[-102.479863,29.759863],[-103.110109,28.969808],[-103.939826,29.269842],[-104.456823,29.571994],[-104.705541,30.121805],[-105.03733,30.644099],[-105.631583,31.083839],[-106.142766,31.399737],[-106.507344,31.754289],[-108.24,31.754854],[-108.241966,31.342067],[-109.043673,31.341899],[-111.023786,31.334651],[-113.305016,32.038975],[-114.814743,32.525276],[-114.72139,32.72083],[-115.99108,32.612583],[-117.127729,32.535327],[-117.295938,33.046225],[-117.944,33.621236],[-118.410602,33.740909],[-118.519895,34.027782],[-119.081,34.078],[-119.438841,34.348477],[-120.367816,34.447226],[-120.622865,34.608611],[-120.744589,35.156821],[-121.714556,36.161721],[-122.547451,37.551817],[-122.512,37.783611],[-122.953317,38.113798],[-123.726965,38.951473],[-123.86507,39.766927],[-124.397958,40.313018],[-124.178875,41.142244],[-124.213809,41.999478],[-124.53284,42.76599],[-124.14214,43.70838],[-123.89893,45.52341],[-123.998676,46.283069],[-124.079635,46.86475],[-124.39567,47.72017],[-124.68721,48.184433]]]}}